NORAD_CAT_ID,OBJECT_NAME,OBJECT_TYPE,EPOCH,MEAN_MOTION,ECCENTRICITY,INCLINATION,RA_OF_ASC_NODE,ARG_OF_PERICENTER,MEAN_ANOMALY,BSTAR,MEAN_MOTION_DOT,MEAN_MOTION_DDOT,TLE_LINE0,TLE_LINE1,TLE_LINE2,SEMIMAJOR_AXIS,PERIOD,APOGEE,PERIGEE,DECAYED
53552.0,STARLINK-4495,PAYLOAD,2024-05-26 08:01:11,15.08842017,0.0001345,53.2179,112.6602,91.3734,268.7412,2.7685e-05,1.53e-06,0.0,0 STARLINK-4495,1 53552U 22101AB  24147.33416007  .00000153  00000-0  27685-4 0  9999,2 53552  53.2179 112.6602 0001345  91.3734 268.7412 15.08842017 98471,6917.874,95.437,540.67,538.809,0.0
53552.0,STARLINK-4495,PAYLOAD,2024-05-27 03:05:49,15.08835155,0.000131,53.2182,109.0924,102.3526,257.7612,8.4027e-05,1.049e-05,0.0,0 STARLINK-4495,1 53552U 22101AB  24148.12904501  .00001049  00000-0  84027-4 0  9996,2 53552  53.2182 109.0924 0001310 102.3526 257.7612 15.08835155 97942,6917.895,95.438,540.666,538.854,0.0
53552.0,STARLINK-4495,PAYLOAD,2024-05-27 14:13:31,15.08836315,0.0001481,53.2185,107.0095,105.9144,254.2011,4.8511e-05,4.84e-06,0.0,0 STARLINK-4495,1 53552U 22101AB  24148.59272624  .00000484  00000-0  48511-4 0  9991,2 53552  53.2185 107.0095 0001481 105.9144 254.2011 15.08836315 98660,6917.892,95.438,540.781,538.732,0.0
53552.0,STARLINK-4495,PAYLOAD,2024-05-28 04:31:59,15.08840304,0.0001322,53.2179,104.3335,94.5765,265.5378,4.6296e-05,4.49e-06,0.0,0 STARLINK-4495,1 53552U 22101AB  24149.18888559  .00000449  00000-0  46296-4 0  9996,2 53552  53.2179 104.3335 0001322  94.5765 265.5378 15.08840304 98109,6917.879,95.438,540.659,538.83,0.0
53552.0,STARLINK-4495,PAYLOAD,2024-05-28 06:07:22,15.08840574,0.0001325,53.2179,104.036,89.4342,270.6802,4.883e-05,4.89e-06,0.0,0 STARLINK-4495,1 53552U 22101AB  24149.25512555  .00000489  00000-0  48830-4 0  9994,2 53552  53.2179 104.0360 0001325  89.4342 270.6802 15.08840574 98761,6917.879,95.438,540.66,538.827,0.0
53552.0,STARLINK-4495,PAYLOAD,2024-05-29 04:22:46,15.08841613,0.0001546,53.2185,99.8741,75.4762,284.6402,6.3353e-05,7.2e-06,0.0,0 STARLINK-4495,1 53552U 22101AB  24150.18248598  .00000720  00000-0  63353-4 0  9996,2 53552  53.2185  99.8741 0001546  75.4762 284.6402 15.08841613 98900,6917.875,95.437,540.81,538.671,0.0
53552.0,STARLINK-4495,PAYLOAD,2024-05-29 20:16:38,15.08833391,0.0001363,53.2178,96.9031,76.2714,283.843,0.00012176,1.65e-05,0.0,0 STARLINK-4495,1 53552U 22101AB  24150.84488802  .00001650  00000-0  12176-3 0  9992,2 53552  53.2178  96.9031 0001363  76.2714 283.8430 15.08833391 98350,6917.901,95.438,540.708,538.823,0.0
53552.0,STARLINK-4495,PAYLOAD,2024-05-30 02:38:11,15.08815684,0.0001501,53.2187,95.7132,74.1901,285.9256,0.00034037,5.13e-05,0.0,0 STARLINK-4495,1 53552U 22101AB  24151.10985178  .00005130  00000-0  34037-3 0  9997,2 53552  53.2187  95.7132 0001501  74.1901 285.9256 15.08815684 98396,6917.955,95.439,540.858,538.781,0.0
53552.0,STARLINK-4495,PAYLOAD,2024-05-30 05:48:56,15.0884497,0.0001361,53.2182,95.1165,81.9348,278.1798,4.338e-05,4.03e-06,0.0,0 STARLINK-4495,1 53552U 22101AB  24151.24232442  .00000403  00000-0  43380-4 0  9991,2 53552  53.2182  95.1165 0001361  81.9348 278.1798 15.08844970 98414,6917.865,95.437,540.672,538.789,0.0
53552.0,STARLINK-4495,PAYLOAD,2024-05-30 05:48:57,15.08824675,0.000157,53.2183,95.1165,82.2241,277.8929,0.00031546,4.734e-05,0.0,0 STARLINK-4495,1 53552U 22101AB  24151.24232806  .00004734  00000-0  31546-3 0  9996,2 53552  53.2183  95.1165 0001570  82.2241 277.8929 15.08824675 99067,6917.927,95.439,540.878,538.706,0.0
53552.0,STARLINK-4495,PAYLOAD,2024-05-31 02:28:57,15.08846707,0.0001704,53.2187,91.2511,77.548,282.5702,7.0773e-05,8.39e-06,0.0,0 STARLINK-4495,1 53552U 22101AB  24152.10344136  .00000839  00000-0  70773-4 0  9990,2 53552  53.2187  91.2511 0001704  77.5480 282.5702 15.08846707 98548,6917.86,95.437,540.904,538.546,0.0
53552.0,STARLINK-4495,PAYLOAD,2024-05-31 05:39:43,15.08855055,0.0001541,53.2184,90.6542,91.5713,268.5456,2.8221e-05,1.61e-06,0.0,0 STARLINK-4495,1 53552U 22101AB  24152.23591579  .00000161  00000-0  28221-4 0  9998,2 53552  53.2184  90.6542 0001541  91.5713 268.5456 15.08855055 99217,6917.834,95.437,540.765,538.633,0.0
53552.0,STARLINK-4495,PAYLOAD,2024-06-01 02:19:45,15.0883621,0.0001573,53.2194,86.7892,98.9231,261.194,-4.5211e-05,-1.007e-05,0.0,0 STARLINK-4495,1 53552U 22101AB  24153.09705184 -.00001007  00000-0 -45211-4 0  9992,2 53552  53.2194  86.7892 0001573  98.9231 261.1940 15.08836210 98693,6917.892,95.438,540.845,538.669,0.0
53552.0,STARLINK-4495,PAYLOAD,2024-06-02 02:10:31,15.08843112,0.0001357,53.2188,82.3295,87.1202,272.9946,1.7591e-05,-8e-08,0.0,0 STARLINK-4495,1 53552U 22101AB  24154.09064717 -.00000008  00000-0  17591-4 0  9992,2 53552  53.2188  82.3295 0001357  87.1202 272.9946 15.08843112 98845,6917.871,95.437,540.675,538.797,0.0
53552.0,STARLINK-4495,PAYLOAD,2024-06-02 11:42:51,15.08840229,0.0001299,53.2187,80.5467,85.1401,274.974,-5.8051e-05,-1.212e-05,0.0,0 STARLINK-4495,1 53552U 22101AB  24154.48809155 -.00001212  00000-0 -58051-4 0  9993,2 53552  53.2187  80.5467 0001299  85.1401 274.9740 15.08840229 99558,6917.88,95.438,540.643,538.846,0.0
53552.0,STARLINK-4495,PAYLOAD,2024-06-02 19:39:48,15.0882413,0.0001855,53.2194,79.0616,94.0703,266.0502,-6.9361e-05,-1.391e-05,0.0,0 STARLINK-4495,1 53552U 22101AB  24154.81930819 -.00001391  00000-0 -69361-4 0  9996,2 53552  53.2194  79.0616 0001855  94.0703 266.0502 15.08824130 98951,6917.929,95.439,541.077,538.511,0.0
53552.0,STARLINK-4495,PAYLOAD,2024-06-03 02:01:21,15.08814775,0.0001298,53.2192,77.8728,98.2107,261.9032,-0.0001406,-2.523e-05,0.0,0 STARLINK-4495,1 53552U 22101AB  24155.08427889 -.00002523  00000-0 -14060-3 0  9997,2 53552  53.2192  77.8728 0001298  98.2107 261.9032 15.08814775 98994,6917.957,95.439,540.72,538.925,0.0
53552.0,STARLINK-4495,PAYLOAD,2024-06-03 11:33:40,15.08825348,0.0001395,53.2188,76.0859,90.422,269.6932,-2.0607e-05,-6.16e-06,0.0,0 STARLINK-4495,1 53552U 22101AB  24155.48171384 -.00000616  00000-0 -20607-4 0  9993,2 53552  53.2188  76.0859 0001395  90.4220 269.6932 15.08825348 99053,6917.925,95.438,540.755,538.825,0.0
53552.0,STARLINK-4495,PAYLOAD,2024-06-04 05:02:52,15.08855929,0.0001247,53.2175,72.8151,91.8773,268.2362,0.0001838,2.64e-05,0.0,0 STARLINK-4495,1 53552U 22101AB  24156.21032673  .00002640  00000-0  18380-3 0  9993,2 53552  53.2175  72.8151 0001247  91.8773 268.2362 15.08855929 99164,6917.832,95.437,540.559,538.834,0.0
53552.0,STARLINK-4495,PAYLOAD,2024-06-04 11:24:25,15.08849991,9.17e-05,53.2185,71.6234,71.301,288.8082,0.00015534,2.186e-05,0.0,0 STARLINK-4495,1 53552U 22101AB  24156.47528979  .00002186  00000-0  15534-3 0  9993,2 53552  53.2185  71.6234 0000917  71.3010 288.8082 15.08849991 99208,6917.85,95.437,540.349,539.08,0.0
53552.0,STARLINK-4495,PAYLOAD,2024-06-05 03:18:17,15.08835782,0.0001128,53.2194,68.6517,78.5064,281.6055,0.00022075,3.227e-05,0.0,0 STARLINK-4495,1 53552U 22101AB  24157.13769932  .00003227  00000-0  22075-3 0  9998,2 53552  53.2194  68.6517 0001128  78.5064 281.6055 15.08835782 99306,6917.893,95.438,540.539,538.978,0.0
53552.0,STARLINK-4495,PAYLOAD,2024-06-06 11:05:59,15.08856923,0.0001264,53.2185,62.7055,87.8086,272.305,-0.0001003,-1.885e-05,0.0,0 STARLINK-4495,1 53552U 22101AB  24158.46249350 -.00001885  00000-0 -10030-3 0  9990,2 53552  53.2185  62.7055 0001264  87.8086 272.3050 15.08856923 99500,6917.829,95.436,540.568,538.819,0.0
53552.0,STARLINK-4495,PAYLOAD,2024-06-06 17:27:32,15.0884485,0.0001056,53.2179,61.5158,91.7966,268.3147,2.1765e-06,-2.53e-06,0.0,0 STARLINK-4495,1 53552U 22101AB  24158.72745669 -.00000253  00000-0  21765-5 0  9999,2 53552  53.2179  61.5158 0001056  91.7966 268.3147 15.08844850 99546,6917.866,95.437,540.461,539.0,0.0
53552.0,STARLINK-4495,PAYLOAD,2024-06-07 10:56:46,15.08844973,0.0001521,53.219,58.2427,102.7973,257.3189,-2.1217e-05,-6.26e-06,0.0,0 STARLINK-4495,1 53552U 22101AB  24159.45609608 -.00000626  00000-0 -21217-4 0  9998,2 53552  53.2190  58.2427 0001521 102.7973 257.3189 15.08844973100306,6917.865,95.437,540.782,538.678,0.0
53552.0,STARLINK-4495,PAYLOAD,2024-06-07 17:18:21,15.08836476,0.0001311,53.2184,57.0539,113.5637,246.5493,-0.00052059,-8.563e-05,0.0,0 STARLINK-4495,1 53552U 22101AB  24159.72108609 -.00008563  00000-0 -52059-3 0  9998,2 53552  53.2184  57.0539 0001311 113.5637 246.5493 15.08836476 99690,6917.891,95.438,540.663,538.849,0.0
53552.0,STARLINK-4495,PAYLOAD,2024-06-07 22:04:29,15.08853415,0.0001099,53.2185,56.1618,118.1148,241.9955,-0.00022662,-3.894e-05,0.0,0 STARLINK-4495,1 53552U 22101AB  24159.91978291 -.00003894  00000-0 -22662-3 0  9990,2 53552  53.2185  56.1618 0001099 118.1148 241.9955 15.08853415100372,6917.839,95.437,540.465,538.944,0.0
53552.0,STARLINK-4495,PAYLOAD,2024-06-08 02:50:38,15.0885597,0.0001115,53.2181,55.2683,119.9719,240.1384,-0.00019573,-3.403e-05,0.0,0 STARLINK-4495,1 53552U 22101AB  24160.11849824 -.00003403  00000-0 -19573-3 0  9996,2 53552  53.2181  55.2683 0001115 119.9719 240.1384 15.08855970 99756,6917.832,95.437,540.468,538.925,0.0
53552.0,STARLINK-4495,PAYLOAD,2024-06-08 21:55:15,15.08848761,0.0001163,53.2192,51.7014,108.8258,251.2861,0.00019745,2.857e-05,0.0,0 STARLINK-4495,1 53552U 22101AB  24160.91336898  .00002857  00000-0  19745-3 0  9997,2 53552  53.2192  51.7014 0001163 108.8258 251.2861 15.08848761100526,6917.854,95.437,540.523,538.914,0.0
53552.0,STARLINK-4495,PAYLOAD,2024-06-08 23:30:38,15.08850119,9.32e-05,53.2175,51.4042,90.5456,269.5643,0.000128,1.751e-05,0.0,0 STARLINK-4495,1 53552U 22101AB  24160.97960915  .00001751  00000-0  12800-3 0  9993,2 53552  53.2175  51.4042 0000932  90.5456 269.5643 15.08850119100536,6917.849,95.437,540.359,539.07,0.0
53552.0,STARLINK-4495,PAYLOAD,2024-06-09 16:59:54,15.08832946,0.0001417,53.2185,48.1348,103.1609,256.9541,0.00010987,1.461e-05,0.0,0 STARLINK-4495,1 53552U 22101AB  24161.70826435  .00001461  00000-0  10987-3 0  9995,2 53552  53.2185  48.1348 0001417 103.1609 256.9541 15.08832946 99991,6917.902,95.438,540.747,538.787,0.0
